0 THORAD AGENA D DEB
1 04612U 70025Q   13282.33874258  .00000791  00000-0  59041-3 0  8294
2 04612 099.6694 214.8478 0091479 226.3091 256.1543 13.96172874197286
0 THORAD AGENA D DEB
1 04612U 70025Q   13283.62907644  .00000641  00000-0  48511-3 0  8309
2 04612 099.6697 216.2024 0091542 222.8323 261.6632 13.96176058197460
0 THORAD AGENA D DEB
1 04612U 70025Q   13286.05348503  .00000462  00000-0  35932-3 0  8328
2 04612 099.6702 218.7475 0091688 216.3108 207.3151 13.96180543197809
0 THORAD AGENA D DEB
1 04612U 70025Q   13287.42573890  .00000446  00000-0  34763-3 0  8333
2 04612 099.6704 220.1881 0091790 212.6251 264.6017 13.96182442197998
0 THORAD AGENA D DEB
1 04612U 70025Q   13289.06362392  .00000495  00000-0  38217-3 0  8341
2 04612 099.6706 221.9077 0091884 208.2067 217.0518 13.96185627198229
0 THORAD AGENA D DEB
1 04612U 70025Q   13290.06723505  .00000483  00000-0  37331-3 0  8354
2 04612 099.6706 222.9614 0091944 205.4999 221.4796 13.96186481198368
0 THORAD AGENA D DEB
1 04612U 70025Q   13291.30466590  .00000505  00000-0  38910-3 0  8360
2 04612 099.6706 224.2606 0092015 202.1641 321.1545 13.96187624198531
0 THORAD AGENA D DEB
1 04612U 70025Q   13292.37026786  .00000576  00000-0  43858-3 0  8373
2 04612 099.6706 225.3795 0092065 199.2756 277.1912 13.96188423198682
0 THORAD AGENA D DEB
1 04612U 70025Q   13293.37451728  .00000675  00000-0  50804-3 0  8382
2 04612 099.6705 226.4340 0092107 196.5536 284.8548 13.96189397198829
0 THORAD AGENA D DEB
1 04612U 70025Q   13294.37618950  .00000723  00000-0  54204-3 0  8398
2 04612 099.6705 227.4858 0092152 193.8444 279.5624 13.96190568198965
0 THORAD AGENA D DEB
1 04612U 70025Q   13295.45221753  .00000851  00000-0  63168-3 0  8402
2 04612 099.6706 228.6156 0092194 190.9309 288.0139 13.96191674199117
